PROBA-1                 
1 26958U 01049B   26163.29113225  .00002601  00000+0  17005-3 0  9991
2 26958  97.9607 171.6525 0055885 138.2331 222.3182 15.07477881342882
CUTE-1 (CO-55)          
1 27844U 03031E   26162.97931317  .00000243  00000+0  12418-3 0  9996
2 27844  98.6735 171.6035 0009162 193.3973 166.6964 14.24332546190935
CUBESAT XI-IV (CO-57)   
1 27848U 03031J   26162.96515925  .00000209  00000+0  11102-3 0  9993
2 27848  98.6768 171.3067 0008710 213.1482 146.9152 14.23618048190631
APRIZESAT 4             
1 35684U 09041D   26163.19966767  .00000630  00000+0  81734-4 0  9994
2 35684  98.1411 238.4206 0042747 339.4813  20.4682 14.83873191910627
APRIZESAT 3             
1 35686U 09041F   26163.15019648  .00001389  00000+0  12416-3 0  9991
2 35686  98.2052 316.1331 0062747  83.9418 276.8948 14.96226409915623
PROBA-2                 
1 36037U 09059B   26163.28863100  .00000186  00000+0  53829-4 0  9993
2 36037  98.2449 346.7094 0012089 298.8532  61.1451 14.54860455880812
APRIZESAT 5             
1 37792U 11044E   26163.27810434  .00001069  00000+0  14210-3 0  9991
2 37792  98.2455  96.1794 0052732  20.0097 340.3166 14.81065880798060
APRIZESAT 6             
1 37793U 11044F   26163.28038403  .00000694  00000+0  10499-3 0  9999
2 37793  98.2370  73.6798 0044459 101.2579  21.3583 14.76909083796428
PROBA-V                 
1 39159U 13021A   26162.91808134  .00000058  00000+0  43411-4 0  9994
2 39159  98.3582 141.7849 0004935 135.9926 224.1647 14.23595922680365
APRIZESAT 7             
1 39416U 13066A   26162.85419509  .00000725  00000+0  77272-4 0  9999
2 39416  97.7708 116.1509 0034607 227.3675 132.4625 14.91552666680437
APRIZESAT 8             
1 39425U 13066K   26163.09684780  .00000836  00000+0  96568-4 0  9993
2 39425  97.8221 110.6358 0044635 303.8368  55.8603 14.87642848678911
BUGSAT-1 (TITA)         
1 40014U 14033E   26163.28252218  .00005789  00000+0  30650-3 0  9993
2 40014  98.0422 255.5442 0027681 195.2474 164.7926 15.15531259655096
SAUDISAT 4              
1 40016U 14033G   26163.11425573  .00000573  00000+0  82007-4 0  9993
2 40016  97.7576 309.4247 0046248  89.9858 270.6653 14.79537740645320
APRIZESAT 9             
1 40018U 14033J   26163.25276819  .00000623  00000+0  98983-4 0  9993
2 40018  97.9054 296.5721 0065348 215.1804 144.5083 14.74208148642835
APRIZESAT 10            
1 40019U 14033K   26163.29670687  .00000390  00000+0  69352-4 0  9998
2 40019  97.9643 290.3653 0077482 289.7403  69.5458 14.70878500641539
TECHDEMOSAT-1 (TDS-1)   
1 40076U 14037H   26162.93475249  .00007420  00000+0  42191-3 0  9994
2 40076  98.3805 154.6269 0004653 290.2755  69.7973 15.13214425647436
TECHNOSAT               
1 42829U 17042E   26162.99659051  .00003373  00000+0  24149-3 0  9998
2 42829  97.4264 320.8526 0018789 110.6510 249.6734 15.04923285485924
FLYING LAPTOP           
1 42831U 17042G   26163.31946583  .00003157  00000+0  25010-3 0  9995
2 42831  97.4663 319.0404 0019326 137.4850 222.7875 15.01113866485726
HAWK-A                  
1 43765U 18099H   26163.09753066  .00005876  00000+0  23773-3 0  9996
2 43765  97.3921 215.3996 0033275 304.7502  55.0603 15.24583080412321
HAWK-B                  
1 43794U 18099AN  26163.11301207  .00005308  00000+0  22740-3 0  9990
2 43794  97.3971 214.8405 0030821 323.5913  36.3227 15.22770433412261
HAWK-C                  
1 43799U 18099AT  26163.08557215  .00007081  00000+0  25603-3 0  9994
2 43799  97.3897 216.2748 0038906 304.5704  55.1866 15.28032135413139
SALSAT                  
1 46495U 20068K   26163.23969061  .00008047  00000+0  28202-3 0  9993
2 46495  97.8848 166.0033 0008469 328.8216  31.2520 15.29730151314601
HAWK-2C                 
1 47502U 21006CT  26163.06631973  .00005922  00000+0  17890-3 0  9995
2 47502  97.2283 207.4783 0006091 204.3939 155.7017 15.34601639298719
HAWK-2A                 
1 47505U 21006CW  26163.13406768  .00005837  00000+0  17628-3 0  9992
2 47505  97.2327 208.2195 0005527 207.5794 152.5157 15.34617139298727
HAWK-2B                 
1 47508U 21006CZ  26163.19508212  .00007565  00000+0  22714-3 0  9990
2 47508  97.2196 206.6190 0006092 205.5702 154.5242 15.34700214298731
HAWK-3B                 
1 48931U 21059BE  26163.09576109  .00042957  00000+0  37061-3 0  9993
2 48931  97.6665 359.3245 0003589 356.1056   4.0176 15.69140516277055
HAWK-3C                 
1 48948U 21059BX  26163.09544666  .00047640  00000+0  41062-3 0  9994
2 48948  97.6789   5.0020 0003863 356.7867   3.3368 15.69141442277051
HAWK-3A                 
1 48957U 21059CG  26163.09534145  .00048676  00000+0  41936-3 0  9995
2 48957  97.6728   2.2102 0004017 359.0775   1.0478 15.69147588277054
HAWK-5C                 
1 52754U 22057Y   26163.07732009  .00017817  00000+0  30590-3 0  9998
2 52754  97.6585 322.4163 0005289  97.9523 262.2329 15.51213870225553
HAWK-5B                 
1 52756U 22057AA  26162.94815621  .00017354  00000+0  29802-3 0  9997
2 52756  97.6592 320.6276 0005935  91.3520 268.8412 15.51208900225532
